[{"OBJECT_NAME":"STARLINK-1167","OBJECT_ID":"2020-006AD","EPOCH":"2026-03-09T18:12:34.471584","MEAN_MOTION":15.29348852,"ECCENTRICITY":0.00011008,"INCLINATION":53.1604,"RA_OF_ASC_NODE":257.5319,"ARG_OF_PERICENTER":101.3336,"MEAN_ANOMALY":258.7788,"EPHEMERIS_TYPE":0,"CLASSIFICATION_TYPE":"U","NORAD_CAT_ID":45071,"ELEMENT_SET_NO":999,"REV_AT_EPOCH":33688,"BSTAR":-2.9063101e-5,"MEAN_MOTION_DOT":-1.194e-5,"MEAN_MOTION_DDOT":0},{"OBJECT_NAME":"SITRO-AIS 5 (KATYS)","OBJECT_ID":"2023-091L","EPOCH":"2026-03-09T22:36:44.932608","MEAN_MOTION":15.27079182,"ECCENTRICITY":0.00133776,"INCLINATION":97.5176,"RA_OF_ASC_NODE":132.0172,"ARG_OF_PERICENTER":94.5677,"MEAN_ANOMALY":265.709,"EPHEMERIS_TYPE":0,"CLASSIFICATION_TYPE":"U","NORAD_CAT_ID":57176,"ELEMENT_SET_NO":999,"REV_AT_EPOCH":14918,"BSTAR":0.00057530772,"MEAN_MOTION_DOT":0.00015262,"MEAN_MOTION_DDOT":0}]
